STARLINK-3867           
1 52587U 22051BD  26076.39581311  .00001062  00000+0  84861-4 0  9998
2 52587  53.2169  84.3823 0001171  87.5153 272.5973 15.08819958212758
STARLINK-3917           
1 52588U 22051BE  26076.40590782  .00001023  00000+0  82366-4 0  9998
2 52588  53.2172  84.4819 0001194  77.7939 282.3187 15.08839623212754
STARLINK-4019           
1 52598U 22052A   26076.51033478  .00000153  00000+0  27718-4 0  9999
2 52598  53.2156 249.0101 0001135  64.2201 295.8908 15.08839298212767
STARLINK-4024           
1 52599U 22052B   26076.49791201  .00000801  00000+0  68444-4 0  9993
2 52599  53.2159 244.1728 0001246  91.7212 268.3923 15.08834683212835
STARLINK-4026           
1 52600U 22052C   26076.47581431 -.00000111  00000+0  11125-4 0  9995
2 52600  53.2157 244.1696 0001318  90.0134 270.1010 15.08836769212830
STARLINK-4027           
1 52601U 22052D   26076.48317404  .00000344  00000+0  39725-4 0  9997
2 52601  53.2157 244.1363 0001330  92.3603 267.7542 15.08837593212830
STARLINK-4012           
1 52602U 22052E   26076.47949627  .00000337  00000+0  39250-4 0  9990
2 52602  53.2151 244.1519 0001343  89.2738 270.8408 15.08835752212837
STARLINK-4016           
1 52603U 22052F   26076.46574153  .00000180  00000+0  29430-4 0  9993
2 52603  53.2157 244.2237 0001432  88.1976 271.9180 15.08833021212839
STARLINK-4013           
1 52604U 22052G   26076.47213435  .00000975  00000+0  79342-4 0  9997
2 52604  53.2151 244.1863 0001330  94.3962 265.7182 15.08838257212030
STARLINK-4000           
1 52605U 22052H   26075.49188575  .00000976  00000+0  79416-4 0  9998
2 52605  53.2141 253.3653 0001405  90.0272 270.0881 15.08845459211811
STARLINK-3928           
1 52606U 22052J   26076.46845398  .00000943  00000+0  77348-4 0  9996
2 52606  53.2162 244.2009 0001275  97.8020 262.3118 15.08838041212031
STARLINK-3947           
1 52607U 22052K   26076.16903324  .00000157  00000+0  27982-4 0  9994
2 52607  53.2154 250.5558 0001429  89.1148 271.0008 15.08836906211906
STARLINK-3979           
1 52608U 22052L   26076.46109697  .00001504  00000+0  11257-3 0  9993
2 52608  53.2163 244.2334 0001331  86.2219 273.8926 15.08837906212033
STARLINK-3997           
1 52609U 22052M   26076.45006867  .00002135  00000+0  15226-3 0  9999
2 52609  53.2155 244.2334 0001290  81.7391 278.3748 15.08825653212038
STARLINK-3998           
1 52610U 22052N   26076.50295826 -.00000428  00000+0 -87879-5 0  9992
2 52610  53.2168 249.0454 0001478  90.9658 269.1504 15.08840413211966
STARLINK-3980           
1 52611U 22052P   26076.49558920  .00001649  00000+0  12165-3 0  9996
2 52611  53.2153 249.0802 0001281  91.9664 268.1475 15.08841750211969
