[{"OBJECT_NAME":"STARLINK-3867","OBJECT_ID":"2022-051BD","EPOCH":"2026-03-17T09:29:58.252704","MEAN_MOTION":15.08819958,"ECCENTRICITY":0.00011718,"INCLINATION":53.2169,"RA_OF_ASC_NODE":84.3823,"ARG_OF_PERICENTER":87.5153,"MEAN_ANOMALY":272.5973,"EPHEMERIS_TYPE":0,"CLASSIFICATION_TYPE":"U","NORAD_CAT_ID":52587,"ELEMENT_SET_NO":999,"REV_AT_EPOCH":21275,"BSTAR":8.486066e-5,"MEAN_MOTION_DOT":1.062e-5,"MEAN_MOTION_DDOT":0},{"OBJECT_NAME":"STARLINK-3917","OBJECT_ID":"2022-051BE","EPOCH":"2026-03-17T09:44:30.435648","MEAN_MOTION":15.08839623,"ECCENTRICITY":0.00011944,"INCLINATION":53.2172,"RA_OF_ASC_NODE":84.4819,"ARG_OF_PERICENTER":77.7939,"MEAN_ANOMALY":282.3187,"EPHEMERIS_TYPE":0,"CLASSIFICATION_TYPE":"U","NORAD_CAT_ID":52588,"ELEMENT_SET_NO":999,"REV_AT_EPOCH":21275,"BSTAR":8.2365945e-5,"MEAN_MOTION_DOT":1.023e-5,"MEAN_MOTION_DDOT":0},{"OBJECT_NAME":"STARLINK-4019","OBJECT_ID":"2022-052A","EPOCH":"2026-03-17T12:14:52.924992","MEAN_MOTION":15.08839298,"ECCENTRICITY":0.00011359,"INCLINATION":53.2156,"RA_OF_ASC_NODE":249.0101,"ARG_OF_PERICENTER":64.2201,"MEAN_ANOMALY":295.8908,"EPHEMERIS_TYPE":0,"CLASSIFICATION_TYPE":"U","NORAD_CAT_ID":52598,"ELEMENT_SET_NO":999,"REV_AT_EPOCH":21276,"BSTAR":2.7718186e-5,"MEAN_MOTION_DOT":1.53e-6,"MEAN_MOTION_DDOT":0},{"OBJECT_NAME":"STARLINK-4024","OBJECT_ID":"2022-052B","EPOCH":"2026-03-17T11:56:59.597664","MEAN_MOTION":15.08834683,"ECCENTRICITY":0.0001246,"INCLINATION":53.2159,"RA_OF_ASC_NODE":244.1728,"ARG_OF_PERICENTER":91.7212,"MEAN_ANOMALY":268.3923,"EPHEMERIS_TYPE":0,"CLASSIFICATION_TYPE":"U","NORAD_CAT_ID":52599,"ELEMENT_SET_NO":999,"REV_AT_EPOCH":21283,"BSTAR":6.8443613e-5,"MEAN_MOTION_DOT":8.01e-6,"MEAN_MOTION_DDOT":0},{"OBJECT_NAME":"STARLINK-4026","OBJECT_ID":"2022-052C","EPOCH":"2026-03-17T11:25:10.356384","MEAN_MOTION":15.08836769,"ECCENTRICITY":0.00013189,"INCLINATION":53.2157,"RA_OF_ASC_NODE":244.1696,"ARG_OF_PERICENTER":90.0134,"MEAN_ANOMALY":270.101,"EPHEMERIS_TYPE":0,"CLASSIFICATION_TYPE":"U","NORAD_CAT_ID":52600,"ELEMENT_SET_NO":999,"REV_AT_EPOCH":21283,"BSTAR":1.1124768e-5,"MEAN_MOTION_DOT":-1.11e-6,"MEAN_MOTION_DDOT":0},{"OBJECT_NAME":"STARLINK-4027","OBJECT_ID":"2022-052D","EPOCH":"2026-03-17T11:35:46.237056","MEAN_MOTION":15.08837593,"ECCENTRICITY":0.00013309,"INCLINATION":53.2157,"RA_OF_ASC_NODE":244.1363,"ARG_OF_PERICENTER":92.3603,"MEAN_ANOMALY":267.7542,"EPHEMERIS_TYPE":0,"CLASSIFICATION_TYPE":"U","NORAD_CAT_ID":52601,"ELEMENT_SET_NO":999,"REV_AT_EPOCH":21283,"BSTAR":3.9724955e-5,"MEAN_MOTION_DOT":3.44e-6,"MEAN_MOTION_DDOT":0},{"OBJECT_NAME":"STARLINK-4012","OBJECT_ID":"2022-052E","EPOCH":"2026-03-17T11:30:28.477728","MEAN_MOTION":15.08835752,"ECCENTRICITY":0.00013434,"INCLINATION":53.2151,"RA_OF_ASC_NODE":244.1519,"ARG_OF_PERICENTER":89.2738,"MEAN_ANOMALY":270.8408,"EPHEMERIS_TYPE":0,"CLASSIFICATION_TYPE":"U","NORAD_CAT_ID":52602,"ELEMENT_SET_NO":999,"REV_AT_EPOCH":21283,"BSTAR":3.9250175e-5,"MEAN_MOTION_DOT":3.37e-6,"MEAN_MOTION_DDOT":0},{"OBJECT_NAME":"STARLINK-4016","OBJECT_ID":"2022-052F","EPOCH":"2026-03-17T11:10:40.068192","MEAN_MOTION":15.08833021,"ECCENTRICITY":0.00014326,"INCLINATION":53.2157,"RA_OF_ASC_NODE":244.2237,"ARG_OF_PERICENTER":88.1976,"MEAN_ANOMALY":271.918,"EPHEMERIS_TYPE":0,"CLASSIFICATION_TYPE":"U","NORAD_CAT_ID":52603,"ELEMENT_SET_NO":999,"REV_AT_EPOCH":21283,"BSTAR":2.9430338e-5,"MEAN_MOTION_DOT":1.8e-6,"MEAN_MOTION_DDOT":0},{"OBJECT_NAME":"STARLINK-4013","OBJECT_ID":"2022-052G","EPOCH":"2026-03-17T11:19:52.407840","MEAN_MOTION":15.08838257,"ECCENTRICITY":0.00013302,"INCLINATION":53.2151,"RA_OF_ASC_NODE":244.1863,"ARG_OF_PERICENTER":94.3962,"MEAN_ANOMALY":265.7182,"EPHEMERIS_TYPE":0,"CLASSIFICATION_TYPE":"U","NORAD_CAT_ID":52604,"ELEMENT_SET_NO":999,"REV_AT_EPOCH":21203,"BSTAR":7.9342101e-5,"MEAN_MOTION_DOT":9.75e-6,"MEAN_MOTION_DDOT":0},{"OBJECT_NAME":"STARLINK-4000","OBJECT_ID":"2022-052H","EPOCH":"2026-03-16T11:48:18.928800","MEAN_MOTION":15.08845459,"ECCENTRICITY":0.00014058,"INCLINATION":53.2141,"RA_OF_ASC_NODE":253.3653,"ARG_OF_PERICENTER":90.0272,"MEAN_ANOMALY":270.0881,"EPHEMERIS_TYPE":0,"CLASSIFICATION_TYPE":"U","NORAD_CAT_ID":52605,"ELEMENT_SET_NO":999,"REV_AT_EPOCH":21181,"BSTAR":7.9416163e-5,"MEAN_MOTION_DOT":9.76e-6,"MEAN_MOTION_DDOT":0},{"OBJECT_NAME":"STARLINK-3928","OBJECT_ID":"2022-052J","EPOCH":"2026-03-17T11:14:34.423872","MEAN_MOTION":15.08838041,"ECCENTRICITY":0.00012759,"INCLINATION":53.2162,"RA_OF_ASC_NODE":244.2009,"ARG_OF_PERICENTER":97.802,"MEAN_ANOMALY":262.3118,"EPHEMERIS_TYPE":0,"CLASSIFICATION_TYPE":"U","NORAD_CAT_ID":52606,"ELEMENT_SET_NO":999,"REV_AT_EPOCH":21203,"BSTAR":7.7348031e-5,"MEAN_MOTION_DOT":9.43e-6,"MEAN_MOTION_DDOT":0},{"OBJECT_NAME":"STARLINK-3947","OBJECT_ID":"2022-052K","EPOCH":"2026-03-17T04:03:24.471936","MEAN_MOTION":15.08836906,"ECCENTRICITY":0.00014293,"INCLINATION":53.2154,"RA_OF_ASC_NODE":250.5558,"ARG_OF_PERICENTER":89.1148,"MEAN_ANOMALY":271.0008,"EPHEMERIS_TYPE":0,"CLASSIFICATION_TYPE":"U","NORAD_CAT_ID":52607,"ELEMENT_SET_NO":999,"REV_AT_EPOCH":21190,"BSTAR":2.7982332e-5,"MEAN_MOTION_DOT":1.57e-6,"MEAN_MOTION_DDOT":0},{"OBJECT_NAME":"STARLINK-3979","OBJECT_ID":"2022-052L","EPOCH":"2026-03-17T11:03:58.778208","MEAN_MOTION":15.08837906,"ECCENTRICITY":0.00013311,"INCLINATION":53.2163,"RA_OF_ASC_NODE":244.2334,"ARG_OF_PERICENTER":86.2219,"MEAN_ANOMALY":273.8926,"EPHEMERIS_TYPE":0,"CLASSIFICATION_TYPE":"U","NORAD_CAT_ID":52608,"ELEMENT_SET_NO":999,"REV_AT_EPOCH":21203,"BSTAR":0.00011257432,"MEAN_MOTION_DOT":1.504e-5,"MEAN_MOTION_DDOT":0},{"OBJECT_NAME":"STARLINK-3997","OBJECT_ID":"2022-052M","EPOCH":"2026-03-17T10:48:05.933088","MEAN_MOTION":15.08825653,"ECCENTRICITY":0.00012906,"INCLINATION":53.2155,"RA_OF_ASC_NODE":244.2334,"ARG_OF_PERICENTER":81.7391,"MEAN_ANOMALY":278.3748,"EPHEMERIS_TYPE":0,"CLASSIFICATION_TYPE":"U","NORAD_CAT_ID":52609,"ELEMENT_SET_NO":999,"REV_AT_EPOCH":21203,"BSTAR":0.00015226082,"MEAN_MOTION_DOT":2.135e-5,"MEAN_MOTION_DDOT":0},{"OBJECT_NAME":"STARLINK-3998","OBJECT_ID":"2022-052N","EPOCH":"2026-03-17T12:04:15.593664","MEAN_MOTION":15.08840413,"ECCENTRICITY":0.00014789,"INCLINATION":53.2168,"RA_OF_ASC_NODE":249.0454,"ARG_OF_PERICENTER":90.9658,"MEAN_ANOMALY":269.1504,"EPHEMERIS_TYPE":0,"CLASSIFICATION_TYPE":"U","NORAD_CAT_ID":52610,"ELEMENT_SET_NO":999,"REV_AT_EPOCH":21196,"BSTAR":-8.787856e-6,"MEAN_MOTION_DOT":-4.28e-6,"MEAN_MOTION_DDOT":0},{"OBJECT_NAME":"STARLINK-3980","OBJECT_ID":"2022-052P","EPOCH":"2026-03-17T11:53:38.906880","MEAN_MOTION":15.0884175,"ECCENTRICITY":0.00012819,"INCLINATION":53.2153,"RA_OF_ASC_NODE":249.0802,"ARG_OF_PERICENTER":91.9664,"MEAN_ANOMALY":268.1475,"EPHEMERIS_TYPE":0,"CLASSIFICATION_TYPE":"U","NORAD_CAT_ID":52611,"ELEMENT_SET_NO":999,"REV_AT_EPOCH":21196,"BSTAR":0.00012165385,"MEAN_MOTION_DOT":1.649e-5,"MEAN_MOTION_DDOT":0}]
